OBJECT_NAME,OBJECT_ID,EPOCH,MEAN_MOTION,ECCENTRICITY,INCLINATION,RA_OF_ASC_NODE,ARG_OF_PERICENTER,MEAN_ANOMALY,EPHEMERIS_TYPE,CLASSIFICATION_TYPE,NORAD_CAT_ID,ELEMENT_SET_NO,REV_AT_EPOCH,BSTAR,MEAN_MOTION_DOT,MEAN_MOTION_DDOT
CUBEBUG-2 (LO-74),2013-066AA,2026-07-11T20:18:42.660576,14.93953448,.00560049,97.8908,141.9334,306.7356,52.8728,0,U,39440,999,68067,.17144837E-3,.1819E-4,0
FUNCUBE-1 (AO-73),2013-066AE,2026-07-11T21:54:09.783072,15.09793381,.00379718,97.8287,164.8814,118.2418,242.2652,0,U,39444,999,68339,.2426226E-3,.3917E-4,0
UWE-3,2013-066AG,2026-07-11T19:28:32.557152,14.97185641,.00475172,97.8698,149.0559,236.3304,123.3381,0,U,39446,999,68126,.15712987E-3,.1794E-4,0
UNISAT-6,2014-033C,2026-07-11T20:59:19.809312,14.88358321,.00444472,97.7904,345.1570,348.8608,11.1621,0,U,40012,999,64983,.13804987E-3,.1244E-4,0
DUCHIFAT-1,2014-033M,2026-07-11T09:52:16.917024,15.70259500,.00020545,98.0442,255.0791,250.9446,109.1592,0,U,40021,999,65954,.80962005E-3,.99078E-3,0
QB50P1,2014-033R,2026-07-11T14:21:34.411680,15.18630813,.00101716,98.0966,205.4618,135.5063,224.6988,0,U,40025,999,65673,.23977545E-3,.4893E-4,0
LILACSAT-2,2015-049K,2026-07-11T21:41:52.588896,15.52277609,.00081891,97.4631,230.6944,151.1306,209.0401,0,U,40908,999,59958,.20016856E-3,.12079E-3,0
FOX-1A (AO-85),2015-058D,2026-07-11T00:41:55.150656,14.91072604,.01320462,64.7731,204.8837,47.3799,313.8357,0,U,40967,999,11712,.15192539E-3,.1601E-4,0
CAS-2T & KS-1Q,2016-066G,2026-07-11T18:11:08.873376,14.44765752,.03424202,98.3814,268.2128,55.1696,308.1201,0,U,41847,999,50834,.9718848E-4,.636E-5,0
RADFXSAT (FOX-1B),2017-073E,2026-07-11T14:44:03.215904,15.13032289,.01480691,97.4679,59.3312,243.9569,114.6355,0,U,43017,999,46908,.15872886E-3,.3594E-4,0
DIWATA-2B,2018-084H,2026-07-11T23:26:38.950080,15.00556763,.00129865,98.1220,30.2704,94.2574,266.0133,0,U,43678,999,41993,.13117684E-3,.1592E-4,0
ES'HAIL 2,2018-090A,2026-07-11T20:32:38.706720,1.00269418,.00021809,0.0268,42.8393,117.1715,103.7059,0,U,43700,999,2792,0,0,0
FOX-1CLIFF (AO-95),2018-099N,2026-07-11T03:03:59.509440,15.27218021,.00070107,97.4378,252.2917,257.0089,103.0367,0,U,43770,999,41687,.26022065E-3,.6872E-4,0
ITASAT,2018-099AE,2026-07-11T17:18:45.961056,15.19355375,.0010794,97.4021,243.7457,264.3546,95.6458,0,U,43786,999,41663,.17042883E-3,.3539E-4,0
JY1SAT (JO-97),2018-099AX,2026-07-11T16:29:36.040416,15.34443331,.00065178,97.4124,255.6172,168.9842,191.1545,0,U,43803,999,41738,.301087E-3,.9972E-4,0
UWE-4,2018-111E,2026-07-09T06:35:43.813824,15.47549208,.00052707,97.5841,119.7053,218.3666,141.7210,0,U,43880,999,41419,.53767723E-3,.2764E-3,0
TIANYAN 01,2019-093C,2026-07-11T22:48:06.270912,14.86556780,.00138717,97.7524,264.5772,11.9546,348.1997,0,U,44881,999,35509,.61094202E-4,.488E-5,0
RS-44 & BREEZE-KM R/B,2019-096E,2026-07-11T20:47:59.366976,12.79748961,.02185629,82.5240,323.3055,86.7368,275.8710,0,U,44909,999,30550,-.67663538E-4,-.4E-7,0
SALSAT,2020-068K,2026-07-11T12:58:29.571456,15.30139435,.00088233,97.8855,197.0941,206.5203,153.5586,0,U,46495,999,31908,.15528118E-3,.4447E-4,0
XW-3 (CAS-9),2021-131B,2026-07-11T23:25:17.616576,14.41379467,.00047954,98.4984,285.2319,38.9791,321.1743,0,U,50466,999,23868,.432136E-4,.96E-6,0
GREENCUBE (IO-117),2022-080E,2026-07-11T07:23:26.297664,6.42583311,.0009046,70.1420,289.8580,284.3679,75.5976,0,U,53109,999,9361,0,-.3E-7,0
UMKA 1 (RS40S),2023-091G,2026-07-11T21:31:16.480128,15.21098514,.00133573,97.5042,251.5011,40.3797,319.8428,0,U,57172,999,16776,.1665106E-3,.364E-4,0
CUBESX-HSE 3 (RS42S),2023-091N,2026-07-11T22:28:18.224256,15.31833019,.00100147,97.5086,258.8445,13.7441,346.4071,0,U,57178,999,16821,.26553089E-3,.8094E-4,0
MONITOR-3 (RS58S),2023-091Q,2026-07-11T22:49:20.364096,15.28332693,.00113575,97.5078,256.5846,21.0226,339.1478,0,U,57180,999,16807,.22805699E-3,.6227E-4,0
MONITOR-4 (RS57S),2023-091S,2026-07-11T22:17:11.863392,15.28418389,.00113544,97.5072,256.5346,21.5432,338.6283,0,U,57182,999,16807,.23040472E-3,.6309E-4,0
MONITOR-2 (RS39S),2023-091U,2026-07-11T22:47:09.961440,15.19136305,.00117024,97.5063,251.0735,34.6198,325.5796,0,U,57184,999,16771,.13731202E-3,.2819E-4,0
SVYATOBOR 1 (RS60S),2023-091X,2026-07-11T21:33:11.146752,15.27028734,.00090797,97.5083,256.8563,16.1147,344.0379,0,U,57187,999,16808,.19975921E-3,.5228E-4,0
VIZARD-METEO (RS38S),2023-091Z,2026-07-11T21:30:53.964288,15.36806237,.00059637,97.5087,262.8883,353.2126,6.9036,0,U,57189,999,16848,.27969831E-3,.9984E-4,0
POLYTECH-UNIVERSE 3 (RS46S),2023-091AB,2026-07-11T21:46:39.188064,15.19347567,.00163513,97.5038,250.5359,48.4973,311.7662,0,U,57191,999,16770,.14737486E-3,.3055E-4,0
UTMN 2 (RS27S),2023-091AP,2026-07-11T22:34:23.922624,15.32651733,.00070704,97.5082,260.5127,2.4189,357.7086,0,U,57203,999,16833,.25328989E-3,.7912E-4,0
