CUBEBUG-2 (LO-74)       
1 39440U 13066AA  26192.84632709  .00001819  00000+0  17145-3 0  9994
2 39440  97.8908 141.9334 0056004 306.7356  52.8728 14.93953448680672
FUNCUBE-1 (AO-73)       
1 39444U 13066AE  26192.91261323  .00003917  00000+0  24262-3 0  9995
2 39444  97.8287 164.8814 0037971 118.2418 242.2652 15.09793381683399
UWE-3                   
1 39446U 13066AG  26192.81148793  .00001794  00000+0  15713-3 0  9993
2 39446  97.8698 149.0559 0047517 236.3304 123.3381 14.97185641681263
UNISAT-6                
1 40012U 14033C   26192.87453483  .00001244  00000+0  13805-3 0  9990
2 40012  97.7904 345.1570 0044447 348.8608  11.1621 14.88358321649835
DUCHIFAT-1              
1 40021U 14033M   26192.41130691  .00099078  00000+0  80962-3 0  9993
2 40021  98.0442 255.0791 0002054 250.9446 109.1592 15.70259500659546
QB50P1                  
1 40025U 14033R   26192.59831495  .00004893  00000+0  23978-3 0  9991
2 40025  98.0966 205.4618 0010171 135.5063 224.6988 15.18630813656732
LILACSAT-2              
1 40908U 15049K   26192.90408089  .00012079  00000+0  20017-3 0  9999
2 40908  97.4631 230.6944 0008189 151.1306 209.0401 15.52277609599580
FOX-1A (AO-85)          
1 40967U 15058D   26192.02911054  .00001601  00000+0  15193-3 0  9996
2 40967  64.7731 204.8837 0132046  47.3799 313.8357 14.91072604117129
CAS-2T & KS-1Q          
1 41847U 16066G   26192.75774159  .00000636  00000+0  97188-4 0  9999
2 41847  98.3814 268.2128 0342420  55.1696 308.1201 14.44765752508345
RADFXSAT (FOX-1B)       
1 43017U 17073E   26192.61392611  .00003594  00000+0  15873-3 0  9999
2 43017  97.4679  59.3312 0148069 243.9569 114.6355 15.13032289469084
DIWATA-2B               
1 43678U 18084H   26192.97683970  .00001592  00000+0  13118-3 0  9991
2 43678  98.1220  30.2704 0012986  94.2574 266.0133 15.00556763419930
ES'HAIL 2               
1 43700U 18090A   26192.85600355  .00000000  00000+0  00000+0 0  9992
2 43700   0.0268  42.8393 0002180 117.1715 103.7059  1.00269418 27921
FOX-1CLIFF (AO-95)      
1 43770U 18099N   26192.12777210  .00006872  00000+0  26022-3 0  9992
2 43770  97.4378 252.2917 0007010 257.0089 103.0367 15.27218021416873
ITASAT                  
1 43786U 18099AE  26192.72136529  .00003539  00000+0  17043-3 0  9997
2 43786  97.4021 243.7457 0010794 264.3546  95.6458 15.19355375416637
JY1SAT (JO-97)          
1 43803U 18099AX  26192.68722269  .00009972  00000+0  30109-3 0  9999
2 43803  97.4124 255.6172 0006517 168.9842 191.1545 15.34443331417382
UWE-4                   
1 43880U 18111E   26190.27481266  .00027640  00000+0  53768-3 0  9999
2 43880  97.5841 119.7053 0005270 218.3666 141.7210 15.47549208414191
TIANYAN 01              
1 44881U 19093C   26192.95007258  .00000488  00000+0  61094-4 0  9996
2 44881  97.7524 264.5772 0013871  11.9546 348.1997 14.86556780355093
RS-44 & BREEZE-KM R/B   
1 44909U 19096E   26192.86665934 -.00000004  00000+0 -67664-4 0  9996
2 44909  82.5240 323.3055 0218562  86.7368 275.8710 12.79748961305509
SALSAT                  
1 46495U 20068K   26192.54062004  .00004447  00000+0  15528-3 0  9997
2 46495  97.8855 197.0941 0008823 206.5203 153.5586 15.30139435319080
XW-3 (CAS-9)            
1 50466U 21131B   26192.97589834  .00000096  00000+0  43214-4 0  9994
2 50466  98.4984 285.2319 0004795  38.9791 321.1743 14.41379467238681
GREENCUBE (IO-117)      
1 53109U 22080E   26192.30794326 -.00000003  00000+0  00000+0 0  9996
2 53109  70.1420 289.8580 0009046 284.3679  75.5976  6.42583311 93613
UMKA 1 (RS40S)          
1 57172U 23091G   26192.89671852  .00003640  00000+0  16651-3 0  9997
2 57172  97.5042 251.5011 0013357  40.3797 319.8428 15.21098514167763
CUBESX-HSE 3 (RS42S)    
1 57178U 23091N   26192.93632204  .00008094  00000+0  26553-3 0  9996
2 57178  97.5086 258.8445 0010014  13.7441 346.4071 15.31833019168214
MONITOR-3 (RS58S)       
1 57180U 23091Q   26192.95093014  .00006227  00000+0  22806-3 0  9994
2 57180  97.5078 256.5846 0011357  21.0226 339.1478 15.28332693168074
MONITOR-4 (RS57S)       
1 57182U 23091S   26192.92860953  .00006309  00000+0  23040-3 0  9999
2 57182  97.5072 256.5346 0011354  21.5432 338.6283 15.28418389168071
MONITOR-2 (RS39S)       
1 57184U 23091U   26192.94942085  .00002819  00000+0  13731-3 0  9998
2 57184  97.5063 251.0735 0011702  34.6198 325.5796 15.19136305167715
SVYATOBOR 1 (RS60S)     
1 57187U 23091X   26192.89804568  .00005228  00000+0  19976-3 0  9992
2 57187  97.5083 256.8563 0009079  16.1147 344.0379 15.27028734168084
VIZARD-METEO (RS38S)    
1 57189U 23091Z   26192.89645792  .00009984  00000+0  27970-3 0  9992
2 57189  97.5087 262.8883 0005963 353.2126   6.9036 15.36806237168482
POLYTECH-UNIVERSE 3 (R*)
1 57191U 23091AB  26192.90739801  .00003055  00000+0  14737-3 0  9992
2 57191  97.5038 250.5359 0016351  48.4973 311.7662 15.19347567167702
UTMN 2 (RS27S)          
1 57203U 23091AP  26192.94055466  .00007912  00000+0  25329-3 0  9993
2 57203  97.5082 260.5127 0007070   2.4189 357.7086 15.32651733168334
